IRIDIUM 166             
1 43570U 18061B   25343.66419137  .00000222  00000+0  72270-4 0  9996
2 43570  86.3977 135.9893 0002145  94.3389 265.8052 14.34215589386239
IRIDIUM 158             
1 43571U 18061C   25343.42317453  .00000195  00000+0  62609-4 0  9993
2 43571  86.3975 136.1003 0001750  95.1535 264.9860 14.34216933386160
IRIDIUM 165             
1 43572U 18061D   25343.51831384  .00000294  00000+0  97862-4 0  9997
2 43572  86.3973 136.1032 0002107  91.6884 268.4553 14.34216312386200
IRIDIUM 155             
1 43573U 18061E   25343.48025882  .00000653  00000+0  22606-3 0  9994
2 43573  86.3969 135.9977 0001988  99.1353 261.0068 14.34217935386168
IRIDIUM 154             
1 43574U 18061F   25343.67054994  .00000559  00000+0  19271-3 0  9991
2 43574  86.3973 136.0423 0002036  91.5582 268.5847 14.34220386386247
IRIDIUM 163             
1 43575U 18061G   25343.58174068  .00000497  00000+0  17026-3 0  9994
2 43575  86.3970 136.0007 0001786  92.0025 268.1375 14.34219850386204
IRIDIUM 156             
1 43576U 18061H   25343.48660260  .00000578  00000+0  19941-3 0  9996
2 43576  86.3972 136.0477 0002035  99.0091 261.1335 14.34217437386181
IRIDIUM 164             
1 43577U 18061J   25343.46757646  .00000350  00000+0  11785-3 0  9996
2 43577  86.3975 136.0928 0002121  91.1861 268.9578 14.34221641386221
